"Hyrrokkin:Saturn XLIV:2004 S 19" "Sol/Saturn" # (previously Hyrokkin) MPEC 2006-M44
{
	Class "minormoon"
	Texture	 	"asteroid.jpg"
	Mesh		"asteroid.cms"
	Radius		4

	EllipticalOrbit
	{
	Epoch		2453800.5	# 2006 Mar 6
	Period		914.29
	SemiMajorAxis	18168300
	Eccentricity	0.3604062
	Inclination	151.827
	AscendingNode	248.953
	ArgOfPericenter 268.525     
	MeanAnomaly      89.589              
	}

	RotationPeriod  10   # Guess

	Albedo 0.06
}

"Daphnis:Saturn XXXV:2005 S 1" "Sol/Saturn"
{
	Class "minormoon"
	Texture "asteroid.jpg"
	Mesh    "asteroid.cms"
	Radius 3.5

	EllipticalOrbit
	{
	Period          0.5998503
	SemiMajorAxis	136500     # Fit to Celestia's Keeler Gap
#	Eccentricity      0.004827 # Fit to Celestia's Keeler Gap
	Inclination       0.000950
	AscendingNode   191.701
	ArgOfPericenter 281.908
	MeanAnomaly       0.000
	}

	Albedo 0.5
}

"2006 S 1" "Sol/Saturn" # MPEC 2006-M45
{
	Class "minormoon"
	Texture	 	"asteroid.jpg"
	Mesh		"asteroid.cms"
	Radius		3

	EllipticalOrbit
	{
	Epoch		2453800.5	# 2006 Mar 6
	Period		972.41
	SemiMajorAxis	18930200
	Eccentricity	0.1302807
	Inclination	159.579
	AscendingNode	178.730
	ArgOfPericenter 138.788     
	MeanAnomaly     241.766              
	}

	RotationPeriod  10   # Guess

	Albedo 0.06
}

"Kari:Saturn XLV:2006 S 2" "Sol/Saturn" # MPEC 2006-M48
{
	Class "minormoon"
	Texture	 	"asteroid.jpg"
	Mesh		"asteroid.cms"
	Radius		3.5

	EllipticalOrbit
	{
	Epoch		2453800.5	# 2006 Mar 6
	Period		1245.06
	SemiMajorAxis	22321200
	Eccentricity	0.3399560
	Inclination	154.373
	AscendingNode	115.635
	ArgOfPericenter 181.696     
	MeanAnomaly     209.511              
	}

	RotationPeriod  10   # Guess

	Albedo 0.06
}

"2006 S 3" "Sol/Saturn" # MPEC 2006-M45
{
	Class "minormoon"
	Texture	 	"asteroid.jpg"
	Mesh		"asteroid.cms"
	Radius		3

	EllipticalOrbit
	{
	Epoch		2453800.5	# 2006 Mar 6
	Period		1142.37
	SemiMajorAxis	21076300
	Eccentricity	0.4709957
	Inclination	150.165
	AscendingNode	 38.575
	ArgOfPericenter 190.856     
	MeanAnomaly     100.635              
	}

	RotationPeriod  10   # Guess

	Albedo 0.06
}

"Greip:Saturn LI:2006 S 4" "Sol/Saturn" # MPEC 2006-M45
{
	Class "minormoon"
	Texture	 	"asteroid.jpg"
	Mesh		"asteroid.cms"
	Radius		3

	EllipticalOrbit
	{
	Epoch		2453800.5	# 2006 Mar 6
	Period		906.56
	SemiMajorAxis	18065700
	Eccentricity	0.3735237
	Inclination	175.914
	AscendingNode	235.009
	ArgOfPericenter 141.501     
	MeanAnomaly     105.502              
	}

	RotationPeriod  10   # Guess

	Albedo 0.06
}

"Loge:Saturn XLVI:2006 S 5" "Sol/Saturn" # MPEC 2006-M48
{
	Class "minormoon"
	Texture	 	"asteroid.jpg"
	Mesh		"asteroid.cms"
	Radius		3

	EllipticalOrbit
	{
	Epoch		2453800.5	# 2006 Mar 6
	Period		1300.95
	SemiMajorAxis	22984300
	Eccentricity	0.1423235
	Inclination	171.183
	AscendingNode	197.088
	ArgOfPericenter  46.810     
	MeanAnomaly     218.554              
	}

	RotationPeriod  10   # Guess

	Albedo 0.06
}

"Jarnsaxa:Saturn L:2006 S 6" "Sol/Saturn" # MPEC 2007-D79
{
	Class "minormoon"
	Texture	 	"asteroid.jpg"
	Mesh		"asteroid.cms"
	Radius		3

	EllipticalOrbit
	{
	Epoch		2454200.5	# 2007 Apr 10
	Period		978.75
	SemiMajorAxis	19012500
	Eccentricity	0.1929545
	Inclination	164.138
	AscendingNode	232.487
	ArgOfPericenter 234.702     
	MeanAnomaly      70.074
	}

	RotationPeriod  10   # Guess

	Albedo 0.06
}

"Surtur:Saturn XLVIII:2006 S 7" "Sol/Saturn" # MPEC 2006-N06
{
	Class "minormoon"
	Texture	 	"asteroid.jpg"
	Mesh		"asteroid.cms"
	Radius		3

	EllipticalOrbit
	{
	Epoch		2453800.5	# 2006 Mar 6
	Period		1242.36
	SemiMajorAxis	22288900
	Eccentricity	0.3688000
	Inclination	169.482
	AscendingNode	 58.170
	ArgOfPericenter 329.289     
	MeanAnomaly      50.553              
	}

	RotationPeriod  10   # Guess

	Albedo 0.06
}

"Skoll:Saturn XLVII:2006 S 8" "Sol/Saturn" # MPEC 2006-M48
{
	Class "minormoon"
	Texture	 	"asteroid.jpg"
	Mesh		"asteroid.cms"
	Radius		3

	EllipticalOrbit
	{
	Epoch		2453800.5	# 2006 Mar 6
	Period		862.37
	SemiMajorAxis	17473800
	Eccentricity	0.4221689
	Inclination	161.837
	AscendingNode	121.645
	ArgOfPericenter 206.421     
	MeanAnomaly     229.323              
	}

	RotationPeriod  10   # Guess

	Albedo 0.06
}

"Tarqeq:Saturn LII:2007 S 1" "Sol/Saturn" # MPEC 2007-G38
{
	Class "minormoon"
	Texture	 	"asteroid.jpg"
	Mesh		"asteroid.cms"
	Radius		3.5

	EllipticalOrbit
	{
	Epoch		2454200.5	# 2007 Apr 10
	Period		894.91
	SemiMajorAxis	17910560
	Eccentricity	0.1081156
	Inclination	 46.073
	AscendingNode	 16.099
	ArgOfPericenter  65.594     
	MeanAnomaly     126.537
	}

	RotationPeriod  10   # Guess

	Albedo 0.06
}

"2007 S 2" "Sol/Saturn" # MPEC 2007-J09
{
	Class "minormoon"
	Texture	 	"asteroid.jpg"
	Mesh		"asteroid.cms"
	Radius		3

	EllipticalOrbit
	{
	Epoch		2454200.5	# 2007 Apr 10
	Period		792.96
	SemiMajorAxis	16523160
	Eccentricity	0.2181375
	Inclination	170.320
	AscendingNode	314.099
	ArgOfPericenter  62.038     
	MeanAnomaly     184.606
	}

	RotationPeriod  10   # Guess

	Albedo 0.06
}

"2007 S 3" "Sol/Saturn" # MPEC 2007-J09
{
	Class "minormoon"
	Texture	 	"asteroid.jpg"
	Mesh		"asteroid.cms"
	Radius		2.5

	EllipticalOrbit
	{
	Epoch		2454200.5	# 2007 Apr 10
	Period		991.66
	SemiMajorAxis	19179340
	Eccentricity	0.1506156
	Inclination	171.507
	AscendingNode	337.152
	ArgOfPericenter 284.032     
	MeanAnomaly     199.246
	}

	RotationPeriod  10   # Guess

	Albedo 0.06
}

"Anthe:Saturn XLIX:2007 S 4" "Sol/Saturn"
{
	Class "minormoon"
	Texture "asteroid.jpg"
	Mesh    "asteroid.cms"
	Radius 1.1

	EllipticalOrbit
	{
	Period          1.041149
	SemiMajorAxis   198105.6
	Eccentricity    0.001102
	Inclination     0.0186
	AscendingNode   251.702
	ArgOfPericenter 349.181
	MeanAnomaly     355.247
	}

	Albedo 0.06  # Estimate
}

# Hedman et al. "Aegaeon (Saturn LIII), a G-ring object"
# Icarus 2010;207: 433-447
"Aegaeon:Saturn LIII:2008 S 1" "Sol/Saturn"
{
	Class "minormoon"
	Texture	"asteroid.jpg"
	Mesh    "asteroid.cms"
	Radius 0.24

	EllipticalOrbit
	{
	Epoch		2454467.00075444
	Period		0.80811114
	SemiMajorAxis	167493.665
	Eccentricity	0.00042277
	Inclination	0.0007
	AscendingNode	350
	LongOfPericenter 312.728
	MeanLongitude	5.641248
	}

	Albedo 0.06  # Estimate
}


# Additional moons of Uranus

"Trinculo:Uranus XXI:2001 U 1" "Sol/Uranus"
{
	Class "minormoon"
	Texture	 	"asteroid.jpg"
	Mesh		"asteroid.cms"
	Radius		5

	EllipticalOrbit
	{
	Period		749.24
	SemiMajorAxis	8504000
	Eccentricity	0.2200
	Inclination	70.509	#
	AscendingNode	7.574	#
	ArgOfPericenter	128.839	# J2000.0
	MeanAnomaly     182.392	#
	}

	RotationPeriod  10   # Guess

	Albedo 0.07
}

"Ferdinand:Uranus XXIV:2001 U 2" "Sol/Uranus"
{
	Class "minormoon"
	Texture	 	"asteroid.jpg"
	Mesh		"asteroid.cms"
	Radius		6

	EllipticalOrbit
	{
	Period		2887.21
	SemiMajorAxis	20901000
	Eccentricity	0.3682
	Inclination	75.339	#
	AscendingNode	10.695	#
	ArgOfPericenter	109.325	# J2000.0
	MeanAnomaly     25.166	#
	}

	RotationPeriod  10   # Guess

	Albedo 0.07
}


"Francisco:Uranus XXII:2001 U 3" "Sol/Uranus"
{
	Class "minormoon"
	Texture	 	"asteroid.jpg"
	Mesh		"asteroid.cms"
	Radius		6

	EllipticalOrbit
	{
	Period		266.56
	SemiMajorAxis	4276000
	Eccentricity	0.1459
	Inclination	70.110	#
	AscendingNode	329.112	#
	ArgOfPericenter	195.118	# J2000.0
	MeanAnomaly     20.667	#
	}

	RotationPeriod  10   # Guess

	Albedo 0.07
}

"Margaret:Uranus XXIII:2003 U 3" "Sol/Uranus"
{
	Class "minormoon"
	Texture	 	"asteroid.jpg"
	Mesh		"asteroid.cms"
	Radius		5.5

	EllipticalOrbit
	{
	Period		1687.01
	SemiMajorAxis	14345000
	Eccentricity	0.6608
	Inclination	137.282	#
	AscendingNode	217.574	#
	ArgOfPericenter	128.558	# J2000.0
	MeanAnomaly     325.270	#
	}

	RotationPeriod  10   # Guess

	Albedo 0.07
}

"Perdita:Uranus XXV:1986 U 10" "Sol/Uranus"
{
	Class "minormoon"
	Texture "asteroid.jpg"
	Mesh    "asteroid.cms"
	Radius 10

	EllipticalOrbit
	{
	Period            0.63877
	SemiMajorAxis   76462
	Eccentricity      0.01160
	Inclination       0.470
	AscendingNode   150.095
	ArgOfPericenter 199.193
	MeanAnomaly     270.068
	}

	RotationPeriod  10   # guess

	Albedo 0.07  # guess
}

